start=new Date('2021-10-23T00:00:00.000Z').valueOf();
sats=[{"REF_FRAME":"TEME","MEAN_ANOMALY":"288.1026","NORAD_CAT_ID":"45084","GP_ID":"187900361","RCS_SIZE":"LARGE","COUNTRY_CODE":"US","ECCENTRICITY":"0.00015030","TIME_SYSTEM":"UTC","ELEMENT_SET_NO":"999","MEAN_ELEMENT_THEORY":"SGP4","REV_AT_EPOCH":"9599","LAUNCH_DATE":"2020-01-29","OBJECT_TYPE":"PAYLOAD","PERIOD":"95.592","INCLINATION":"53.0546","ARG_OF_PERICENTER":"72.0127","TLE_LINE1":"1 45084U 20006AS  21295.53622571 -.00000160  00000-0  81378-5 0  9999","TLE_LINE2":"2 45084  53.0546 225.4985 0001503  72.0127 288.1026 15.06398747 95998","DECAY_DATE":null,"CLASSIFICATION_TYPE":"U","PERIAPSIS":"546.177","SITE":"AFETR","CENTER_NAME":"EARTH","SEMIMAJOR_AXIS":"6925.352","MEAN_MOTION_DDOT":"0.0000000000000","EPHEMERIS_TYPE":"0","OBJECT_ID":"2020-006AS","BSTAR":"0.00000813780000","FILE":"3178676","MEAN_MOTION":"15.06398747","RA_OF_ASC_NODE":"225.4985","EPOCH":"2021-10-22T12:52:09.901344","MEAN_MOTION_DOT":"-0.00000160","APOAPSIS":"548.258","OBJECT_NAME":"STARLINK-1173"},{"CLASSIFICATION_TYPE":"U","DECAY_DATE":null,"PERIAPSIS":"546.199","SITE":"AFETR","CENTER_NAME":"EARTH","SEMIMAJOR_AXIS":"6925.363","MEAN_MOTION_DDOT":"0.0000000000000","EPHEMERIS_TYPE":"0","OBJECT_ID":"2020-006AT","FILE":"3178676","MEAN_MOTION":"15.06395148","BSTAR":"0.00000963190000","RA_OF_ASC_NODE":"225.5069","MEAN_MOTION_DOT":"-0.00000138","EPOCH":"2021-10-22T12:46:52.649184","OBJECT_NAME":"STARLINK-1179","APOAPSIS":"548.258","REF_FRAME":"TEME","MEAN_ANOMALY":"296.2682","RCS_SIZE":"LARGE","GP_ID":"187901111","NORAD_CAT_ID":"45085","COUNTRY_CODE":"US","ECCENTRICITY":"0.00014860","MEAN_ELEMENT_THEORY":"SGP4","TIME_SYSTEM":"UTC","ELEMENT_SET_NO":"999","REV_AT_EPOCH":"9599","OBJECT_TYPE":"PAYLOAD","LAUNCH_DATE":"2020-01-29","PERIOD":"95.592","INCLINATION":"53.0544","ARG_OF_PERICENTER":"63.8460","TLE_LINE1":"1 45085U 20006AT  21295.53255381 -.00000138  00000-0  96319-5 0  9997","TLE_LINE2":"2 45085  53.0544 225.5069 0001486  63.8460 296.2682 15.06395148 95999"},{"OBJECT_ID":"2020-006AU","FILE":"3178676","BSTAR":"0.00017200000000","MEAN_MOTION":"15.07071063","EPHEMERIS_TYPE":"0","RA_OF_ASC_NODE":"223.6576","APOAPSIS":"546.364","OBJECT_NAME":"STARLINK-1181","MEAN_MOTION_DOT":"0.00002326","EPOCH":"2021-10-22T12:08:05.431488","CLASSIFICATION_TYPE":"U","DECAY_DATE":null,"PERIAPSIS":"543.951","SITE":"AFETR","CENTER_NAME":"EARTH","MEAN_MOTION_DDOT":"0.0000000000000","SEMIMAJOR_AXIS":"6923.293","REV_AT_EPOCH":"9591","PERIOD":"95.550","INCLINATION":"53.0027","LAUNCH_DATE":"2020-01-29","OBJECT_TYPE":"PAYLOAD","ARG_OF_PERICENTER":"61.1041","TLE_LINE2":"2 45086  53.0027 223.6576 0001743  61.1041 299.0123 15.07071063 95911","TLE_LINE1":"1 45086U 20006AU  21295.50561842  .00002326  00000-0  17200-3 0  9997","RCS_SIZE":"LARGE","GP_ID":"187899859","NORAD_CAT_ID":"45086","COUNTRY_CODE":"US","REF_FRAME":"TEME","MEAN_ANOMALY":"299.0123","ECCENTRICITY":"0.00017430","ELEMENT_SET_NO":"999","TIME_SYSTEM":"UTC","MEAN_ELEMENT_THEORY":"SGP4"},{"GP_ID":"187899610","RCS_SIZE":"LARGE","NORAD_CAT_ID":"45087","COUNTRY_CODE":"US","REF_FRAME":"TEME","MEAN_ANOMALY":"293.2518","ECCENTRICITY":"0.00018200","TIME_SYSTEM":"UTC","MEAN_ELEMENT_THEORY":"SGP4","ELEMENT_SET_NO":"999","REV_AT_EPOCH":"9599","PERIOD":"95.593","INCLINATION":"53.0537","OBJECT_TYPE":"PAYLOAD","LAUNCH_DATE":"2020-01-29","ARG_OF_PERICENTER":"66.8662","TLE_LINE2":"2 45087  53.0537 225.5747 0001820  66.8662 293.2518 15.06389765 95998","TLE_LINE1":"1 45087U 20006AV  21295.51781306  .00003023  00000-0  22180-3 0  9996","DECAY_DATE":null,"CLASSIFICATION_TYPE":"U","PERIAPSIS":"545.985","SITE":"AFETR","CENTER_NAME":"EARTH","SEMIMAJOR_AXIS":"6925.380","MEAN_MOTION_DDOT":"0.0000000000000","OBJECT_ID":"2020-006AV","FILE":"3178676","MEAN_MOTION":"15.06389765","BSTAR":"0.00022180000000","EPHEMERIS_TYPE":"0","RA_OF_ASC_NODE":"225.5747","OBJECT_NAME":"STARLINK-1185","APOAPSIS":"548.505","MEAN_MOTION_DOT":"0.00003023","EPOCH":"2021-10-22T12:25:39.048384"},{"ECCENTRICITY":"0.00017990","COUNTRY_CODE":"US","GP_ID":"187932710","RCS_SIZE":"LARGE","NORAD_CAT_ID":"45088","MEAN_ANOMALY":"283.3216","REF_FRAME":"TEME","TIME_SYSTEM":"UTC","ELEMENT_SET_NO":"999","MEAN_ELEMENT_THEORY":"SGP4","INCLINATION":"53.0547","PERIOD":"95.593","OBJECT_TYPE":"PAYLOAD","LAUNCH_DATE":"2020-01-29","REV_AT_EPOCH":"9599","TLE_LINE2":"2 45088  53.0547 225.4914 0001799  76.7974 283.3216 15.06392996 95991","TLE_LINE1":"1 45088U 20006AW  21295.53991277  .00000388  00000-0  44956-4 0  9996","ARG_OF_PERICENTER":"76.7974","CENTER_NAME":"EARTH","SITE":"AFETR","PERIAPSIS":"545.989","CLASSIFICATION_TYPE":"U","DECAY_DATE":null,"SEMIMAJOR_AXIS":"6925.370","MEAN_MOTION_DDOT":"0.0000000000000","RA_OF_ASC_NODE":"225.4914","FILE":"3179071","MEAN_MOTION":"15.06392996","BSTAR":"0.00004495600000","OBJECT_ID":"2020-006AW","EPHEMERIS_TYPE":"0","APOAPSIS":"548.481","OBJECT_NAME":"STARLINK-1183","MEAN_MOTION_DOT":"0.00000388","EPOCH":"2021-10-22T12:57:28.463328"},{"RA_OF_ASC_NODE":"225.4737","EPHEMERIS_TYPE":"0","MEAN_MOTION":"15.06405180","FILE":"3179071","BSTAR":"0.00008213100000","OBJECT_ID":"2020-006AX","EPOCH":"2021-10-22T13:02:46.190688","MEAN_MOTION_DOT":"0.00000942","OBJECT_NAME":"STARLINK-1136","APOAPSIS":"548.348","CENTER_NAME":"EARTH","SITE":"AFETR","PERIAPSIS":"546.047","CLASSIFICATION_TYPE":"U","DECAY_DATE":null,"MEAN_MOTION_DDOT":"0.0000000000000","SEMIMAJOR_AXIS":"6925.333","LAUNCH_DATE":"2020-01-29","OBJECT_TYPE":"PAYLOAD","INCLINATION":"53.0544","PERIOD":"95.592","REV_AT_EPOCH":"9600","TLE_LINE1":"1 45089U 20006AX  21295.54359017  .00000942  00000-0  82131-4 0  9991","TLE_LINE2":"2 45089  53.0544 225.4737 0001661  78.8821 281.2355 15.06405180 96008","ARG_OF_PERICENTER":"78.8821","ECCENTRICITY":"0.00016610","MEAN_ANOMALY":"281.2355","REF_FRAME":"TEME","COUNTRY_CODE":"US","GP_ID":"187931458","NORAD_CAT_ID":"45089","RCS_SIZE":"LARGE","ELEMENT_SET_NO":"999","TIME_SYSTEM":"UTC","MEAN_ELEMENT_THEORY":"SGP4"},{"PERIAPSIS":"546.109","CLASSIFICATION_TYPE":"U","DECAY_DATE":null,"CENTER_NAME":"EARTH","SITE":"AFETR","SEMIMAJOR_AXIS":"6925.407","MEAN_MOTION_DDOT":"0.0000000000000","EPHEMERIS_TYPE":"0","BSTAR":"0.00038826000000","FILE":"3178676","MEAN_MOTION":"15.06380935","OBJECT_ID":"2020-006AY","RA_OF_ASC_NODE":"225.5471","EPOCH":"2021-10-22T12:36:16.172352","MEAN_MOTION_DOT":"0.00005503","APOAPSIS":"548.435","OBJECT_NAME":"STARLINK-1176","MEAN_ANOMALY":"294.5960","REF_FRAME":"TEME","COUNTRY_CODE":"US","GP_ID":"187899360","RCS_SIZE":"LARGE","NORAD_CAT_ID":"45090","ECCENTRICITY":"0.00016790","TIME_SYSTEM":"UTC","ELEMENT_SET_NO":"999","MEAN_ELEMENT_THEORY":"SGP4","REV_AT_EPOCH":"9599","LAUNCH_DATE":"2020-01-29","OBJECT_TYPE":"PAYLOAD","INCLINATION":"53.0539","PERIOD":"95.593","ARG_OF_PERICENTER":"65.5204","TLE_LINE1":"1 45090U 20006AY  21295.52518718  .00005503  00000-0  38826-3 0  9995","TLE_LINE2":"2 45090  53.0539 225.5471 0001679  65.5204 294.5960 15.06380935 95993"},{"SEMIMAJOR_AXIS":"6925.351","MEAN_MOTION_DDOT":"0.0000000000000","CENTER_NAME":"EARTH","SITE":"AFETR","DECAY_DATE":null,"CLASSIFICATION_TYPE":"U","PERIAPSIS":"546.003","APOAPSIS":"548.429","OBJECT_NAME":"STARLINK-1137","EPOCH":"2021-10-22T11:59:06.021600","MEAN_MOTION_DOT":"-0.00000955","RA_OF_ASC_NODE":"225.6687","OBJECT_ID":"2020-006BA","FILE":"3178676","BSTAR":"-0.00004523500000","MEAN_MOTION":"15.06399224","EPHEMERIS_TYPE":"0","MEAN_ELEMENT_THEORY":"SGP4","ELEMENT_SET_NO":"999","TIME_SYSTEM":"UTC","ECCENTRICITY":"0.00017510","GP_ID":"187900110","RCS_SIZE":"LARGE","NORAD_CAT_ID":"45092","COUNTRY_CODE":"US","REF_FRAME":"TEME","MEAN_ANOMALY":"293.0876","TLE_LINE2":"2 45092  53.0547 225.6687 0001751  67.0298 293.0876 15.06399224 95985","TLE_LINE1":"1 45092U 20006BA  21295.49937525 -.00000955  00000-0 -45235-4 0  9995","ARG_OF_PERICENTER":"67.0298","PERIOD":"95.592","INCLINATION":"53.0547","OBJECT_TYPE":"PAYLOAD","LAUNCH_DATE":"2020-01-29","REV_AT_EPOCH":"9598"},{"MEAN_MOTION_DOT":"-0.00000310","EPOCH":"2021-10-22T05:31:37.829280","OBJECT_NAME":"STARLINK-1142","APOAPSIS":"548.448","RA_OF_ASC_NODE":"226.8723","EPHEMERIS_TYPE":"0","FILE":"3178676","MEAN_MOTION":"15.06387610","BSTAR":"-0.00000188930000","OBJECT_ID":"2020-006BB","SEMIMAJOR_AXIS":"6925.387","MEAN_MOTION_DDOT":"0.0000000000000","SITE":"AFETR","CENTER_NAME":"EARTH","PERIAPSIS":"546.056","DECAY_DATE":null,"CLASSIFICATION_TYPE":"U","TLE_LINE1":"1 45093U 20006BB  21295.23029895 -.00000310  00000-0 -18893-5 0  9996","TLE_LINE2":"2 45093  53.0547 226.8723 0001727  72.7143 287.4035 15.06387610 95941","ARG_OF_PERICENTER":"72.7143","OBJECT_TYPE":"PAYLOAD","LAUNCH_DATE":"2020-01-29","INCLINATION":"53.0547","PERIOD":"95.593","REV_AT_EPOCH":"9594","TIME_SYSTEM":"UTC","MEAN_ELEMENT_THEORY":"SGP4","ELEMENT_SET_NO":"999","ECCENTRICITY":"0.00017270","MEAN_ANOMALY":"287.4035","REF_FRAME":"TEME","COUNTRY_CODE":"US","NORAD_CAT_ID":"45093","GP_ID":"187900362","RCS_SIZE":"LARGE"},{"ARG_OF_PERICENTER":"66.7298","TLE_LINE1":"1 45094U 20006BC  21295.51042370  .00001731  00000-0  13510-3 0  9996","TLE_LINE2":"2 45094  53.0537 225.6006 0001615  66.7298 293.3860 15.06394935 95997","REV_AT_EPOCH":"9599","LAUNCH_DATE":"2020-01-29","OBJECT_TYPE":"PAYLOAD","INCLINATION":"53.0537","PERIOD":"95.592","MEAN_ELEMENT_THEORY":"SGP4","ELEMENT_SET_NO":"999","TIME_SYSTEM":"UTC","MEAN_ANOMALY":"293.3860","REF_FRAME":"TEME","COUNTRY_CODE":"US","RCS_SIZE":"LARGE","GP_ID":"187901112","NORAD_CAT_ID":"45094","ECCENTRICITY":"0.00016150","EPOCH":"2021-10-22T12:15:00.607680","MEAN_MOTION_DOT":"0.00001731","APOAPSIS":"548.348","OBJECT_NAME":"STARLINK-1146","EPHEMERIS_TYPE":"0","BSTAR":"0.00013510000000","FILE":"3178676","MEAN_MOTION":"15.06394935","OBJECT_ID":"2020-006BC","RA_OF_ASC_NODE":"225.6006","MEAN_MOTION_DDOT":"0.0000000000000","SEMIMAJOR_AXIS":"6925.364","PERIAPSIS":"546.111","DECAY_DATE":null,"CLASSIFICATION_TYPE":"U","SITE":"AFETR","CENTER_NAME":"EARTH"}];
